# Made by eph2tle, compiled Oct 16 2022 14:39:00
# Run at Wed Oct 19 12:26:10 2022
#
# Max error 0.2   (Following TLEs should be good to at least 0.2 degrees)
# No updates (this is just a flyby)
#
#    Based on observations of A10OthN = 2022 UQ1
#
#    The following TLEs (Two-Line Elements) were generated by fitting
# a numerically-integrated ephemeris,  based on the orbit given below,
# to the SDP4/SGP4 models.  Each TLE is good for the interval between
# its epoch and the epoch of the subsequent TLE (usually one day).
# The maximum deviation between the numerically integrated ephemerides
# and the TLE-based ephemeris, in kilometers,  is given for each TLE
# as the "worst residual".
#
#    This fitting is done using the 'eph2tle' code packaged with Find_Orb.
# The code has details on how the TLEs were computed :
#
#    https://github.com/Bill-Gray/find_orb/eph2tle.cpp
#
#    Be warned:  the error given is that between the numerically
# integrated ephems and the TLE model.  There will usually be at
# least some additional difference between the ephems and the actual
# motion of the satellite,  especially if the ephemerides are based
# on a short arc.  If the following orbital elements say something
# like "[based on] 10 observations 2015 Jan. 1-13",  and the TLEs
# are for 2015 May,  the extrapolation may be tenuous at best.  If
# your application requires a specific level of accuracy,  you may
# want to contact me;  I can give you some idea as to the fit of the
# underlying data (and possibly TLEs based on newer data).
#
#   You can usually find the underlying observational data,  and the
# fitted orbit,  residuals,  ephemerides,  and sometimes some comments
# about the object,  among the pages listed at
#
#    https://www.projectpluto.com/pluto/mpecs/pseudo.htm
#
#    WARNING:  for this object,  "normal" TLEs cannot be fitted.  (This
# usually means an object with an hyperbolic or nearly-parabolic orbit.)
# For this and similar cases,   an alternative model is used,  in which
# most of the traditional TLE data is replaced by six signed 8-digit hex
# numbers.  These six numbers are a state vector,  numerically integrated
# using a simplified force model.  This is necessary for objects at L2 or
# L1,  and sometimes for objects in high orbits where the SDP4/SGP4 model
# fails.  Some documentation is in 'get_el.cpp' in the source code at
# https://www.github.com/Bill-Gray/sat_code ; look for 'hex' in that file,
# with the actual integration done in 'sdp4.cpp'.  But be aware:  it's my
# own extension,  doesn't work with other code,  and is therefore used
# only when necessary.
#
#    Also,  if you use a TLE outside the "correct" time range (between
# its MJD and that of the next TLE),  all bets are off.  I've carefully
# computed and minimized the worst error over the "correct" time frame,
# but the ephemeris may (or may not) diverge wildly outside of it.
#
# Ephem range: 59868.000000 59888.000000 1.000000
# Created Wed Oct 19 12:26:01 2022
# Ephemeris start: 16 Oct 2022  0:00:00
# Ephemeris end:    5 Nov 2022  0:00:00
# Times are all TDT
# Positions/velocities are in ecliptic J2000
# Orbital elements:  Lucy Centaur = 2021-093B = NORAD 49329
#    Perihelion 2021 Jul 27.38397 +/- 0.132 TT =  9:12:54 (JD 2459422.88397)
# Epoch 2021 Oct 24.0 TT = JDT 2459511.5   Earth MOID: 0.0000      Find_Orb
# M  87.31055834 +/- 0.06             (J2000 ecliptic)
# n   0.98526819 +/- 0.000792         Peri.   82.17124 +/- 0.21
# a   1.00022968 +/- 0.000536         Node   202.51249 +/- 0.011
# e   0.1622930 +/- 0.00036           Incl.    0.13452 +/- 0.0051
# P   1.00/365.38d           H 26.92  G  0.15   U  8.0
# q 0.83789940 +/- 0.000801    Q 1.16255997 +/- 0.000293
# From 17 observations 2022 Oct. 18-19 (25.6 hr); mean residual 0".296
#
# 1 NoradU COSPAR   Epoch.epoch     dn/dt/2  d2n/dt2/6 BSTAR    T El# C
# 2 NoradU Inclina RAAscNode Eccent  ArgPeri MeanAno  MeanMotion Rev# C

# Worst residual: 117.27 km
# MJD 59868.000000 (2022 Oct 16  0:00)
Lucy Centaur = 2021-093B = NORAD 49329
1 49329U 21093B   22288.99919926 -002JJMNP -000JQFXF -0005Y8WFH 17533
2 49329                          +000WJV8Y +000ABF49 +0003ZCWL     03

# Worst residual: 11.38 km
# MJD 59869.000000 (2022 Oct 17  0:00)
Lucy Centaur = 2021-093B = NORAD 49329
1 49329U 21093B   22289.99919926 +003LDMLD -0043E42Q -002IR6NSH 17532
2 49329                          +000IDDOU -000N9J4M -000E7GSZ     01

# Worst residual: 5.04 km
# MJD 59870.000000 (2022 Oct 18  0:00)
Lucy Centaur = 2021-093B = NORAD 49329
1 49329U 21093B   22290.99919926 +007XXOO5 -009LUKVK -005VXS3DH 17539
2 49329                          +000HZ8F2 -000MSQ1H -000DX4SL     06

# Worst residual: 1.93 km
# MJD 59871.000000 (2022 Oct 19  0:00)
Lucy Centaur = 2021-093B = NORAD 49329
1 49329U 21093B   22291.99919926 +00C8RB6T -00F24T6X -0097SEO0H 17533
2 49329                          +000HVJGW -000MNMAR -000DU0PL     01

# Worst residual: 1.79 km
# MJD 59872.000000 (2022 Oct 20  0:00)
Lucy Centaur = 2021-093B = NORAD 49329
1 49329U 21093B   22292.99919926 +00GIZRGL -00KHI9YN -00CJ36HPH 17530
2 49329                          +000HTXH2 -000MKO3Z -000DS8YZ     04

# Worst residual: 1.90 km
# MJD 59873.000000 (2022 Oct 21  0:00)
Lucy Centaur = 2021-093B = NORAD 49329
1 49329U 21093B   22293.99919926 +00KSXXPA -00PW9B68 -00FU0MA3H 17539
2 49329                          +000HT1QK -000MIASQ -000DQUS4     06

# Worst residual: 2.04 km
# MJD 59874.000000 (2022 Oct 22  0:00)
Lucy Centaur = 2021-093B = NORAD 49329
1 49329U 21093B   22294.99919926 +00P2PXDA -00VAGGIV -00J4MGJEH 17530
2 49329                          +000HSG7F -000MG0OG -000DPJ8Z     06

# Worst residual: 2.21 km
# MJD 59875.000000 (2022 Oct 23  0:00)
Lucy Centaur = 2021-093B = NORAD 49329
1 49329U 21093B   22295.99919926 +00TCD67C -010O3HZ9 -00MEWQ2XH 17533
2 49329                          +000HRX6N -000MDMGK -000DO5TQ     02

# Worst residual: 2.42 km
# MJD 59876.000000 (2022 Oct 24  0:00)
Lucy Centaur = 2021-093B = NORAD 49329
1 49329U 21093B   22296.99919926 +00XLVNQH -01614ZHX -00POUNW8H 17536
2 49329                          +000HRBTL -000MB0PG -000DMOAC     01

# Worst residual: 2.69 km
# MJD 59877.000000 (2022 Oct 25  0:00)
Lucy Centaur = 2021-093B = NORAD 49329
1 49329U 21093B   22297.99919926 +011V8D49 -01BDIW5G -00SYF4YKH 17530
2 49329                          +000HQKDZ -000M85U0 -000DL1HZ     05

# Worst residual: 2.98 km
# MJD 59878.000000 (2022 Oct 26  0:00)
Lucy Centaur = 2021-093B = NORAD 49329
1 49329U 21093B   22298.99919926 +0164DFQT -01GP6YH1 -00W7KTEQH 17534
2 49329                          +000HPJO4 -000M51DN -000DJ8YV     09

# Worst residual: 3.26 km
# MJD 59879.000000 (2022 Oct 27  0:00)
Lucy Centaur = 2021-093B = NORAD 49329
1 49329U 21093B   22299.99919926 +01AD8AQM -01M02WR5 -00ZGAB6VH 17532
2 49329                          +000HO6SJ -000M1NPQ -000DHANW     08

# Worst residual: 3.53 km
# MJD 59880.000000 (2022 Oct 28  0:00)
Lucy Centaur = 2021-093B = NORAD 49329
1 49329U 21093B   22300.99919926 +01ELPPVU -01RA4NH6 -012OI9NHH 17536
2 49329                          +000HMF8L -000LY1VN -000DF6XC     06

# Worst residual: 3.79 km
# MJD 59881.000000 (2022 Oct 29  0:00)
Lucy Centaur = 2021-093B = NORAD 49329
1 49329U 21093B   22301.99919926 +01ITPX2X -01WJAEFK -015W7GFLH 17530
2 49329                          +000HK6XT -000LU9F8 -000DCYE7     01

# Worst residual: 4.04 km
# MJD 59882.000000 (2022 Oct 30  0:00)
Lucy Centaur = 2021-093B = NORAD 49329
1 49329U 21093B   22302.99919926 +01N14OL3 -021RISF5 -0193CTNRH 17534
2 49329                          +000HHGCN -000LQC8L -000DALX1     00

# Worst residual: 4.30 km
# MJD 59883.000000 (2022 Oct 31  0:00)
Lucy Centaur = 2021-093B = NORAD 49329
1 49329U 21093B   22303.99919926 +01R7THQ5 -026YSXED -01C9XJD2H 17538
2 49329                          +000HE6HK -000LMCDK -000D86GL     01

# Worst residual: 4.56 km
# MJD 59884.000000 (2022 Nov  1  0:00)
Lucy Centaur = 2021-093B = NORAD 49329
1 49329U 21093B   22304.99919926 +01VDNNKQ -02C54F48 -01FFX03LH 17534
2 49329                          +000HACVL -000LIBVR -000D5P0N     06

# Worst residual: 4.83 km
# MJD 59885.000000 (2022 Nov  2  0:00)
Lucy Centaur = 2021-093B = NORAD 49329
1 49329U 21093B   22305.99919926 +01ZIIF38 -02HAHCIG -01ILAUW0H 17532
2 49329                          +000H5ZHG -000LECO5 -000D36JM     00

# Worst residual: 5.11 km
# MJD 59886.000000 (2022 Nov  3  0:00)
Lucy Centaur = 2021-093B = NORAD 49329
1 49329U 21093B   22306.99919926 +023M92FQ -02MEW87U -01LQ2YMVH 17534
2 49329                          +000H12LW -000LAGG6 -000D0NWL     00

# Worst residual: 5.42 km
# MJD 59887.000000 (2022 Nov  4  0:00)
Lucy Centaur = 2021-093B = NORAD 49329
1 49329U 21093B   22307.99919926 +027OQZEL -02RIDYK0 -01OU9D7MH 17537
2 49329                          +000GVMRP -000L6OOB -000CY5UC     02
Avg worst resid: 9.52 km
Worst residual in entire run: 117.27 km on MJD 59868.0
       1     3     10    30    100   300   1K    3K    10K   km
     0     8    10     1     0     1     0     0     0     0
